#dV2023  1 27 22  0  0.00000000    1682       CTS   FIT  GFZ
## 2246 511200.00000000    30.00000000 59971 0.9166666666667
+    1   L64  0  0  0  0  0  0  0  0  0  0  0  0  0  0  0  0
+          0  0  0  0  0  0  0  0  0  0  0  0  0  0  0  0  0
+          0  0  0  0  0  0  0  0  0  0  0  0  0  0  0  0  0
+          0  0  0  0  0  0  0  0  0  0  0  0  0  0  0  0  0
+          0  0  0  0  0  0  0  0  0  0  0  0  0  0  0  0  0
++         0  0  0  0  0  0  0  0  0  0  0  0  0  0  0  0  0
++         0  0  0  0  0  0  0  0  0  0  0  0  0  0  0  0  0
++         0  0  0  0  0  0  0  0  0  0  0  0  0  0  0  0  0
++         0  0  0  0  0  0  0  0  0  0  0  0  0  0  0  0  0
++         0  0  0  0  0  0  0  0  0  0  0  0  0  0  0  0  0
%c L  cc GPS ccc cccc cccc cccc cccc ccccc ccccc ccccc ccccc
%c cc cc ccc ccc cccc cccc cccc cccc ccccc ccccc ccccc ccccc
%f  0.0000000  0.000000000  0.00000000000  0.000000000000000
%f  0.0000000  0.000000000  0.00000000000  0.000000000000000
%i    0    0    0    0      0      0      0      0         0
%i    0    0    0    0      0      0      0      0         0
/* CCCCCCCCCCCCCCCCCCCCCCCCCCCCCCCCCCCCCCCCCCCCCCCCCCCCCCCCCCCCCCCCCCCCCCCCCCCCC
/* C                             GFZ RSO-ORBIT                                 C
/* C DOI: https://doi.org/10.5880/GFZ_ORBIT/RSO/L64_G_v02                      C
/* C                                                                           C
/* C DORIS        RMS: not applicable                                          C
/* C GNSS-E Code  RMS: not applicable                                          C
/* C GNSS-E Phase RMS: not applicable                                          C
/* C GNSS-G Code  RMS:  47.397 [cm]   Obs.acc.:     13377 Obs.eli.:       921  C
/* C GNSS-G Phase RMS:   3.909 [mm]   Obs.acc.:     13377 Obs.eli.:       921  C
/* C SLR          RMS:   2.632 [cm]   Obs.acc.:        38 Obs.eli.:         0  C
/* C                                                                           C
/* CCCCCCCCCCCCCCCCCCCCCCCCCCCCCCCCCCCCCCCCCCCCCCCCCCCCCCCCCCCCCCCCCCCCCCCCCCCCC
*  2023  1 28  4 22 30.00000000
PL64  -5941.765302    422.288656   3435.082355    587.303690
VL64  38213.932607     91.790987  65856.907090 999999.999999
*  2023  1 28  4 23  0.00000000
PL64  -5823.882326    422.076626   3630.717112    587.763356
VL64  40367.269428   -234.700292  64554.254684 999999.999999
*  2023  1 28  4 23 30.00000000
PL64  -5699.607575    420.871399   3822.336563    588.222937
VL64  42474.718917   -570.246384  63180.284957 999999.999999
*  2023  1 28  4 24  0.00000000
PL64  -5569.082255    418.646667   4009.729033    588.682619
VL64  44533.927700   -914.272675  61736.529294 999999.999999
*  2023  1 28  4 24 30.00000000
PL64  -5432.454547    415.377876   4192.687559    589.142406
VL64  46542.600344  -1266.185129  60224.596188 999999.999999
*  2023  1 28  4 25  0.00000000
PL64  -5289.879426    411.042282   4371.010113    589.602237
VL64  48498.502581  -1625.371393  58646.168426 999999.999999
*  2023  1 28  4 25 30.00000000
PL64  -5141.518475    405.619003   4544.499827    590.061935
VL64  50399.463193  -1991.201852  57003.000054 999999.999999
*  2023  1 28  4 26  0.00000000
PL64  -4987.539697    399.089072   4712.965194    590.521552
VL64  52243.375404  -2363.030509  55296.914140 999999.999999
*  2023  1 28  4 26 30.00000000
PL64  -4828.117314    391.435483   4876.220282    590.981264
VL64  54028.198521  -2740.195640  53529.801128 999999.999999
*  2023  1 28  4 27  0.00000000
PL64  -4663.431570    382.643238   5034.084928    591.440893
VL64  55751.959764  -3122.020483  51703.617190 999999.999999
*  2023  1 28  4 27 30.00000000
PL64  -4493.668523    372.699391   5186.384933    591.900486
VL64  57412.756075  -3507.814353  49820.383126 999999.999999
*  2023  1 28  4 28  0.00000000
PL64  -4319.019831    361.593085   5332.952258    592.360277
VL64  59008.757998  -3896.874758  47882.183078 999999.999999
*  2023  1 28  4 28 30.00000000
PL64  -4139.682525    349.315588   5473.625206    592.819812
VL64  60538.212632  -4288.488912  45891.159610 999999.999999
*  2023  1 28  4 29  0.00000000
PL64  -3955.858782    335.860321   5608.248589    593.279255
VL64  61999.443167  -4681.933295  43849.511088 999999.999999
*  2023  1 28  4 29 30.00000000
PL64  -3767.755691    321.222891   5736.673899    593.738810
VL64  63390.851590  -5076.474674  41759.490892 999999.999999
*  2023  1 28  4 30  0.00000000
PL64  -3575.585013    305.401116   5858.759465    594.198398
VL64  64710.921512  -5471.372354  39623.403139 999999.999999
*  2023  1 28  4 30 30.00000000
PL64  -3379.562937    288.395048   5974.370600    594.657983
VL64  65958.218464  -5865.879154  37443.598970 999999.999999
*  2023  1 28  4 31  0.00000000
PL64  -3179.909831    270.206985   6083.379737    595.117196
VL64  67131.389436  -6259.242175  35222.474260 999999.999999
*  2023  1 28  4 31 30.00000000
PL64  -2976.850000    250.841496   6185.666565    595.575822
VL64  68229.163412  -6650.703983  32962.469911 999999.999999
*  2023  1 28  4 32  0.00000000
PL64  -2770.611436    230.305423   6281.118160    596.033134
VL64  69250.355307  -7039.503833  30666.070133 999999.999999
*  2023  1 28  4 32 30.00000000
PL64  -2561.425551    208.607897   6369.629112    596.489665
VL64  70193.867838  -7424.878847  28335.797535 999999.999999
*  2023  1 28  4 33  0.00000000
PL64  -2349.526920    185.760339   6451.101629    596.946660
VL64  71058.691955  -7806.065116  25974.209894 999999.999999
*  2023  1 28  4 33 30.00000000
PL64  -2135.153011    161.776459   6525.445644    597.404800
VL64  71843.907569  -8182.298708  23583.896686 999999.999999
*  2023  1 28  4 34  0.00000000
PL64  -1918.543918    136.672262   6592.578901    597.863598
VL64  72548.683148  -8552.816747  21167.476289 999999.999999
*  2023  1 28  4 34 30.00000000
PL64  -1699.942097    110.466035   6652.427040    598.322176
VL64  73172.276128  -8916.858801  18727.594231 999999.999999
*  2023  1 28  4 35  0.00000000
PL64  -1479.592099     83.178342   6704.923674    598.781175
VL64  73714.033722  -9273.668410  16266.920754 999999.999999
*  2023  1 28  4 35 30.00000000
PL64  -1257.740296     54.832008   6750.010465    599.240474
VL64  74173.393793  -9622.494372  13788.148512 999999.999999
*  2023  1 28  4 36  0.00000000
PL64  -1034.634607     25.452105   6787.637178    599.699977
VL64  74549.886106  -9962.591724  11293.989390 999999.999999
*  2023  1 28  4 36 30.00000000
PL64   -810.524228     -4.934075   6817.761741    600.159536
VL64  74843.131959 -10293.222757   8787.170877 999999.999999
*  2023  1 28  4 37  0.00000000
PL64   -585.659353    -36.297036   6840.350285    600.619089
VL64  75052.843251 -10613.658251   6270.434207 999999.999999
*  2023  1 28  4 37 30.00000000
PL64   -360.290903    -68.605109   6855.377181    601.078666
VL64  75178.823446 -10923.178597   3746.532821 999999.999999
*  2023  1 28  4 38  0.00000000
PL64   -134.670250   -101.824483   6862.825079    601.538286
VL64  75220.968842 -11221.074859   1218.229028 999999.999999
*  2023  1 28  4 38 30.00000000
PL64     90.951061   -135.919237   6862.684921    601.997897
VL64  75179.268315 -11506.649879  -1311.709411 999999.999999
*  2023  1 28  4 39  0.00000000
PL64    316.321592   -170.851377   6854.955959    602.457438
VL64  75053.803118 -11779.219723  -3840.511673 999999.999999
*  2023  1 28  4 39 30.00000000
PL64    541.190286   -206.580880   6839.645758    602.917152
VL64  74844.746933 -12038.115179  -6365.406814 999999.999999
*  2023  1 28  4 40  0.00000000
PL64    765.306745   -243.065739   6816.770194    603.376947
VL64  74552.365111 -12282.682806  -8883.626332 999999.999999
*  2023  1 28  4 40 30.00000000
PL64    988.421505   -280.262012   6786.353440    603.836754
VL64  74177.014753 -12512.285562 -11392.405885 999999.999999
*  2023  1 28  4 41  0.00000000
PL64   1210.286312   -318.123868   6748.427956    604.296322
VL64  73719.146124 -12726.303875 -13888.988567 999999.999999
*  2023  1 28  4 41 30.00000000
PL64   1430.654403   -356.603649   6703.034450    604.755968
VL64  73179.302227 -12924.137421 -16370.630570 999999.999999
*  2023  1 28  4 42  0.00000000
PL64   1649.280779   -395.651927   6650.221841    605.215589
VL64  72558.114883 -13105.206105 -18834.604394 999999.999999
*  2023  1 28  4 42 30.00000000
PL64   1865.922465   -435.217561   6590.047205    605.674975
VL64  71856.303365 -13268.950316 -21278.197285 999999.999999
*  2023  1 28  4 43  0.00000000
PL64   2080.338781   -475.247765   6522.575736    606.134688
VL64  71074.677333 -13414.832108 -23698.712290 999999.999999
*  2023  1 28  4 43 30.00000000
PL64   2292.291613   -515.688176   6447.880686    606.594382
VL64  70214.137802 -13542.336841 -26093.473345 999999.999999
*  2023  1 28  4 44  0.00000000
PL64   2501.545683   -556.482918   6366.043301    607.054205
VL64  69275.675836 -13650.973967 -28459.829954 999999.999999
*  2023  1 28  4 44 30.00000000
PL64   2707.868821   -597.574685   6277.152733    607.514195
VL64  68260.370236 -13740.277335 -30795.160636 999999.999999
*  2023  1 28  4 45  0.00000000
PL64   2911.032223   -638.904806   6181.305955    607.974315
VL64  67169.385795 -13809.806040 -33096.874292 999999.999999
*  2023  1 28  4 45 30.00000000
PL64   3110.810706   -680.413331   6078.607664    608.435963
VL64  66003.973977 -13859.146205 -35362.412548 999999.999999
*  2023  1 28  4 46  0.00000000
PL64   3306.982973   -722.039109   5969.170177    608.898492
VL64  64765.471894 -13887.912775 -37589.254867 999999.999999
*  2023  1 28  4 46 30.00000000
PL64   3499.331863   -763.719878   5853.113312    609.360079
VL64  63455.298791 -13895.749939 -39774.922131 999999.999999
*  2023  1 28  4 47  0.00000000
PL64   3687.644591   -805.392352   5730.564258    609.820693
VL64  62074.953632 -13882.331052 -41916.977714 999999.999999
*  2023  1 28  4 47 30.00000000
PL64   3871.712989   -846.992310   5601.657451    610.280960
VL64  60626.014479 -13847.359448 -44013.028840 999999.999999
EOF
